TRANSPORTER-16 OBJECT AX
1 68461U 26067AX  26130.45343221  .00004704  00000+0  23698-3 0  9997
2 68461  97.4528  89.4474 0003798 166.6853 193.4481 15.17653221  6212
TRANSPORTER-16 OBJECT AY
1 68462U 26067AY  26130.43836012  .00004942  00000+0  24485-3 0  9990
2 68462  97.4529  89.4686 0003806 129.2311 230.9262 15.18213199  6214
GARAI-B (UNAMUNO)       
1 68463U 26067AZ  26130.45528942  .00004024  00000+0  20424-3 0  9993
2 68463  97.4513  89.4359 0003447 167.3861 192.7459 15.17472836  6216
FGN-100-D3              
1 68464U 26067BA  26130.45496847  .00002884  00000+0  14726-3 0  9992
2 68464  97.4496  89.4255 0002888 173.8504 186.2765 15.17491646  6214
HOTSAT-2                
1 68465U 26067BB  26130.45616226  .00002033  00000+0  10510-3 0  9991
2 68465  97.4504  89.4269 0002904 173.7127 186.4143 15.17389278  6218
TRANSPORTER-16 OBJECT BC
1 68466U 26067BC  26130.13864048  .00004547  00000+0  23272-3 0  9995
2 68466  97.4464  89.0664 0005424 193.4273 166.6817 15.17103279  6011
TRANSPORTER-16 OBJECT BD
1 68467U 26067BD  26130.39162807  .00009127  00000+0  45365-3 0  9994
2 68467  97.4392  89.3069 0005991 184.3478 175.7705 15.17854898  6207
ERMIS-1                 
1 68468U 26067BE  26130.40383132  .00005094  00000+0  26036-3 0  9996
2 68468  97.4532  89.3620 0006898 169.5404 190.5974 15.17090906  6203
W-SERIES 6              
1 68469U 26067BF  26130.43218269  .00002603  00000+0  12233-3 0  9995
2 68469  97.4507  89.4678 0013847  95.5726 264.7089 15.20417980  6218
TRANSPORTER-16 OBJECT BG
1 68470U 26067BG  26130.40524963  .00004204  00000+0  21604-3 0  9996
2 68470  97.4454  89.3200 0006617 183.2476 176.8715 15.17004634  6207
LEMUR-2-DELOITTE-3      
1 68471U 26067BH  26130.43744464  .00003165  00000+0  32415-3 0  9997
2 68471  97.7556  89.2290 0004361 149.4585 210.6888 14.91190637  6108
FLYLAB1                 
1 68472U 26067BJ  26130.44249397  .00001728  00000+0  18156-3 0  9993
2 68472  97.7605  89.2443 0004860 143.6973 216.4576 14.90738180  6103
VIGORIDE-7              
1 68473U 26067BK  26130.43655690  .00008909  00000+0  43374-3 0  9998
2 68473  97.4537  89.4561 0003494 148.6085 211.5359 15.18597656  6195
BLACK KITE-2            
1 68474U 26067BL  26130.40197742  .00001197  00000+0  12232-3 0  9996
2 68474  97.7525  89.2617 0003102  44.2271 315.9195 14.92408587  6091
TRANSPORTER-16 OBJECT BM
1 68475U 26067BM  26130.36787657  .00005813  00000+0  58702-3 0  9993
2 68475  97.7495  89.1432 0004062 149.1060 211.0398 14.91424396  5566
LEMUR-2-JULIA-JOEL      
1 68476U 26067BN  26130.40195661  .00002180  00000+0  21804-3 0  9994
2 68476  97.7539  89.2677 0003499  55.5961 304.5588 14.92461609  6098
TRANSPORTER-16 OBJECT BP
1 68477U 26067BP  26130.30110963  .00005988  00000+0  60495-3 0  9994
2 68477  97.7505  89.0783 0004546 163.2052 196.9318 14.91393885  5485
FOSSASAT-2E25           
1 68478U 26067BQ  26130.40944589  .00000435  00000+0  48319-4 0  9999
2 68478  97.7579  89.2732 0003370  67.4017 292.7558 14.92074860  6092
LEMUR-2-PEGGY-2004      
1 68479U 26067BR  26130.40699337  .00002814  00000+0  28106-3 0  9992
2 68479  97.7521  89.2549 0002781  63.0521 297.0982 14.92294354  6094
LEMUR-2-IRINA           
1 68480U 26067BS  26130.39491433  .00001695  00000+0  16978-3 0  9999
2 68480  97.7603  89.3057 0005215  52.3423 307.8269 14.92693952  6094
TORO3                   
1 68481U 26067BT  26130.41089318  .00001265  00000+0  13011-3 0  9996
2 68481  97.7648  89.3025 0004465  83.3592 276.8135 14.92060140  6090
LEMUR-2-SEJONG-3        
1 68482U 26067BU  26130.39496453  .00001664  00000+0  16679-3 0  9992
2 68482  97.7549  89.2819 0004403  40.6629 319.4918 14.92689513  6094
LEMUR-2-CLARA           
1 68483U 26067BV  26130.40192229  .00002468  00000+0  24622-3 0  9999
2 68483  97.7618  89.3045 0004738  65.7182 294.4532 14.92450346  6091
VINDLER 2.2             
1 68484U 26067BW  26130.50002315 -.00017335  00000+0 -15897-2 0  9991
2 68484  97.7584  89.3788 0003374  73.9749  71.1939 14.94880209  1300
CAPELLA-20 (ACADIA-10)  
1 68485U 26067BX  26130.47784639  .00004126  00000+0  41116-3 0  9990
2 68485  97.7553  89.3308 0003302  76.7275 283.4312 14.92123721  6104
VINDLER 2.3             
1 68486U 26067BY  26130.41639885  .00001030  00000+0  10750-3 0  9998
2 68486  97.7560  89.2557 0002665  87.4954 272.6570 14.91845566  6093
TRANSPORTER-16 OBJECT BZ
1 68487U 26067BZ  26130.47078752  .00002292  00000+0  22936-3 0  9995
2 68487  97.7517  89.3227 0002753  51.8986 308.2481 14.92398870  6100
VINDLER 2.1             
1 68488U 26067CA  26130.42143529  .00001280  00000+0  13202-3 0  9998
2 68488  97.7555  89.2473 0002312 115.7743 244.3714 14.91917527  6099
LEMUR-2-CARROLLEMO      
1 68489U 26067CB  26130.42992461  .00002809  00000+0  28684-3 0  9994
2 68489  97.7516  89.2186 0002402 146.2510 213.8862 14.91403248  6094
MIMIR 1                 
1 68490U 26067CC  26130.42828943  .00001441  00000+0  15035-3 0  9996
2 68490  97.7592  89.2558 0003347 125.2888 234.8644 14.91270376  6092
LEMUR-2-DELOITTE-2      
1 68491U 26067CD  26130.43416125  .00001412  00000+0  14752-3 0  9996
2 68491  97.7544  89.2263 0003468 148.4355 211.7072 14.91259504  6092
LEMUR-2-EMARCHIA        
1 68492U 26067CE  26130.43493965  .00003929  00000+0  39983-3 0  9992
2 68492  97.7544  89.2267 0003950 150.1164 210.0281 14.91307081  6099
LEMUR-2-POLO-11         
1 68493U 26067CF  26130.43365771  .00003498  00000+0  35667-3 0  9992
2 68493  97.7630  89.2674 0005027 131.6365 228.5285 14.91302556  6092
ICEYE-X71               
1 68494U 26067CG  26130.42698257  .00001560  00000+0  16148-3 0  9991
2 68494  97.7589  89.2566 0003297 122.4011 237.7527 14.91485608  6090
GRAVITAS                
1 68495U 26067CH  26129.13944947  .00000325  00000+0  53004-4 0  9999
2 68495  97.7589  87.5582 0004210 121.7051 238.4570 14.76954985  5875
ICEYE-X73               
1 68496U 26067CJ  26130.47907646  .00001571  00000+0  16040-3 0  9996
2 68496  97.7582  89.3407 0003412  80.4470 279.7134 14.92035298  6100
ICEYE-X75               
1 68497U 26067CK  26130.41258888  .00001578  00000+0  16108-3 0  9990
2 68497  97.7571  89.2658 0003121  79.1194 281.0376 14.92013412  6097
IO-1                    
1 68498U 26067CL  26130.43120095  .00002351  00000+0  24124-3 0  9998
2 68498  97.7527  89.2217 0002766 150.3180 209.8196 14.91352014  6092
SERT3                   
1 68499U 26067CM  26130.42701257  .00001189  00000+0  12450-3 0  9990
2 68499  97.7561  89.2432 0002406 123.1022 237.0428 14.91454104  6098
ICEYE-X74               
1 68500U 26067CN  26130.42618624  .00001837  00000+0  18909-3 0  9993
2 68500  97.7598  89.2610 0003318 119.2119 240.9432 14.91488607  6098
TRANSPORTER-16 OBJECT CP
1 68501U 26067CP  26130.43150017  .00001906  00000+0  19673-3 0  9998
2 68501  97.7611  89.2589 0004268 132.1987 227.9595 14.91330409  6093
ICEYE-X76               
1 68502U 26067CQ  26130.42395398  .00001819  00000+0  18685-3 0  9996
2 68502  97.7604  89.2668 0003293 114.3238 245.8325 14.91596371  6094
FLYLAB2                 
1 68503U 26067CR  26130.38052375  .00001370  00000+0  14555-3 0  9991
2 68503  97.7550  89.1456 0005204 168.5411 191.5927 14.90610715  6089
ICEYE-X72               
1 68504U 26067CS  26130.41690825  .00001726  00000+0  17641-3 0  9998
2 68504  97.7604  89.2761 0003461  95.1255 265.0359 14.91852235  6097
GEMS2-AMETHYST          
1 68505U 26067CT  26130.44684449  .00002892  00000+0  29924-3 0  9999
2 68505  97.7585  89.2289 0005930 152.4069 207.7465 14.90842236  6094
STARLINK-37262          
1 68508U 26068A   26130.49646131  .00148257  00000+0  74063-3 0  9994
2 68508  53.1558 199.5727 0001698  50.0402 310.0770 15.80908281  6445
STARLINK-36292          
1 68509U 26068B   26130.51254889  .00021143  00000+0  38688-3 0  9990
2 68509  53.1593 201.8711 0001090  74.8428 285.2702 15.49330815  6415
STARLINK-37260          
1 68510U 26068C   26130.50002315 -.01980963  00000+0 -33970-1 0  9990
2 68510  53.1606 200.1847 0001224  60.0832  11.9142 15.53714292  5645
STARLINK-37280          
1 68511U 26068D   26130.49421071  .00200545  00000+0  99396-3 0  9997
2 68511  53.1553 199.5576 0002131  42.1765 317.9422 15.80920532  6446
STARLINK-37286          
1 68512U 26068E   26130.43023714  .00166558  00000+0  82893-3 0  9993
2 68512  53.1552 199.8704 0000732  47.6845 312.4239 15.80932964  6433
STARLINK-36250          
1 68513U 26068F   26130.47136751  .00029752  00000+0  54054-3 0  9996
2 68513  53.1585 202.3303 0001187  80.7350 279.3794 15.49330755  6408
STARLINK-37251          
1 68514U 26068G   26130.48977683  .00018881  00000+0  44199-3 0  9995
2 68514  53.1586 203.1655 0001012  83.0705 277.0416 15.42177312  6391
STARLINK-36293          
1 68515U 26068H   26130.47117083  .00045957  00000+0  82914-3 0  9996
2 68515  53.1585 202.3290 0001012  85.9887 274.1238 15.49321416  6404
STARLINK-36290          
1 68516U 26068J   26130.43685895  .00019512  00000+0  35782-3 0  9993
2 68516  53.1590 202.1048 0001018  88.6483 271.4643 15.49324002  6402
STARLINK-36298          
1 68517U 26068K   26130.44305830  .00025980  00000+0  60405-3 0  9999
2 68517  53.1584 203.5916 0001053  86.0182 274.0944 15.42179369  6389
STARLINK-36857          
1 68518U 26068L   26130.47441406  .00022440  00000+0  41021-3 0  9994
2 68518  53.1580 202.3459 0000819  54.6974 305.4111 15.49320270  6408
STARLINK-36326          
1 68519U 26068M   26130.47460760  .00021381  00000+0  39124-3 0  9993
2 68519  53.1582 202.3500 0001044  88.4833 271.6296 15.49322301  6403
STARLINK-37126          
1 68520U 26068N   26130.47321065  .00035219  00000+0  63800-3 0  9992
2 68520  53.1579 202.3397 0001040  75.1899 284.9225 15.49328325  6407
STARLINK-36347          
1 68521U 26068P   26130.50002315 -.03116189  00000+0 -10869+0 0  9995
2 68521  53.1601 202.2613 0001786  30.2633  93.1349 15.33435212  5648
